#aV2021  3  5  0  0  0.00000000     288 DD+AD WGS84 FIT  NGA
## 2147 432000.00000000   300.00000000 59278 0.0000000000000
+   32     1  2  3  4  5  6  7  8  9 10 11 12 13 14 15 16 17
+         18 19 20 21 22 23 24 25 26 27 28 29 30 31 32  0  0
+          0  0  0  0  0  0  0  0  0  0  0  0  0  0  0  0  0
+          0  0  0  0  0  0  0  0  0  0  0  0  0  0  0  0  0
+          0  0  0  0  0  0  0  0  0  0  0  0  0  0  0  0  0
++         2  2  2  2  2  2  2  2  2  2  2  2  2  2  2  2  2
++         2  2  2  2  2  2  2  2  2  2  2  2  2  2  2  0  0
++         0  0  0  0  0  0  0  0  0  0  0  0  0  0  0  0  0
++         0  0  0  0  0  0  0  0  0  0  0  0  0  0  0  0  0
++         0  0  0  0  0  0  0  0  0  0  0  0  0  0  0  0  0
%c cc cc ccc ccc cccc cccc cccc cccc ccccc ccccc ccccc ccccc
%c cc cc ccc ccc cccc cccc cccc cccc ccccc ccccc ccccc ccccc
%f  0.0000000  0.000000000  0.00000000000  0.000000000000000
%f  0.0000000  0.000000000  0.00000000000  0.000000000000000
%i    0    0    0    0      0      0      0      0         0
%i    0    0    0    0      0      0      0      0         0
/*      NGA, ST. LOUIS,MO.                                  
/*   EPHEMERIS COMPUTED FROM 2 DAYS OF DATA                 
/*   EPOCHA v5 SMOOTHER                                     
/*   G2139 IERS2010 SATAF SATAPC                            
*  2021  3  5 21 45  0.00000000
P  1  13319.853298 -14790.123753  17164.862723    747.848515                    
V  1  -1137.031780  22386.796791  20221.379745     -0.084359                    
P  2 -13471.854155 -10087.836648 -19882.459419   -583.217388                    
V  2   2221.482829 -26665.202212  11675.834428     -0.037853                    
P  3  22533.886739 -13218.225832  -4541.058377    -99.992015                    
V  3   6248.127184    120.791903  31295.216379     -0.104018                    
P  4  16213.045423  -5322.728183 -20363.806285   -184.371725                    
V  4  19668.551355  16803.973963  11212.582647     -0.023791                    
P  5 -23544.178303   1437.700490 -12541.755367    -35.403725                    
V  5  13115.458952  -8799.211977 -25759.256269     -0.010465                    
P  6  -6584.028797 -21830.682878 -13510.158743     -0.513901                    
V  6   3667.993834 -16937.883832  25513.370774      0.016647                    
P  7   6720.125301 -24824.274941  -5155.063889     80.197724                    
V  7   2601.854555   7441.084505 -30946.578411      0.127155                    
P  8  20973.020249   1055.074535  16441.286567    -12.622518                    
V  8  16006.240063  13274.504882 -20976.066952     -0.014173                    
P  9   5292.798734 -14884.817607 -21407.080345   -328.543131                    
V  9  22337.394424  15304.428733  -5155.523083     -0.032989                    
P 10   2396.203516  15248.187826  21699.217952    -74.841066                    
V 10 -25192.856047  10516.383985  -4891.809777     -0.080232                    
P 11  13739.050642  -8550.945716  20646.170714     -7.082277                    
V 11  10262.488131  25416.109912   3255.156744      0.106275                    
P 12 -24673.131582   9557.923337  -1167.552077     -9.830412                    
V 12  -1951.891589  -1970.621952  32113.599888     -0.053004                    
P 13 -21797.339817 -11387.138415  10058.472867    104.413172                    
V 13  -7759.075952 -10565.033884 -28271.562163      0.044091                    
P 14   -115.412436 -15940.619599  21232.515320     99.606516                    
V 14  25435.272297  -9069.185484  -6679.075518      0.007526                    
P 15 -21152.457248   1481.536997  15846.574417   -165.132712                    
V 15 -16768.338850 -12433.366726 -20398.829274      0.025944                    
P 16  22624.780687   2687.100462 -14273.088365   -289.564440                    
V 16 -16157.423522   6882.599972 -24280.976594     -0.057777                    
P 17 -10520.865511 -20553.310901  13555.103843    404.781767                    
V 17  13634.511720   9358.549362  25585.485888      0.063615                    
P 18  -5103.828793  25932.407970  -2295.216354    349.694173                    
V 18  -2246.738950  -3242.224207 -31752.595229      0.011579                    
P 19 -16682.325415 -19988.433366   5216.479153    -30.216329                    
V 19   6528.111609   3169.591648  31230.619526      0.050039                    
P 20  -9344.370932  19214.923546  15552.708323    524.393354                    
V 20 -18412.136717   8287.035958 -21501.835516     -0.002013                    
P 21  15353.667696  -6306.588491  21381.124302    100.770232                    
V 21   -149.249438  25606.064826   8380.166792      0.030658                    
P 22  24337.361039  -9102.663021   5224.863514   -666.595765                    
V 22  -3846.742395   6354.141838  30306.673282      0.078569                    
P 23  -9593.850383  17720.912581  17260.187134    118.074803                    
V 23 -20627.862544   7744.364781 -19432.855312     -0.005768                    
P 24 -14832.495647   9514.221413  19518.379074      1.499414                    
V 24   -534.967747 -25566.244900  12299.146621     -0.005163                    
P 25 -15798.087727  16870.755358 -13091.981366     93.043552                    
V 25 -15890.132262   4371.786037  25583.768876      0.075174                    
P 26  15139.514163   8847.618209 -20074.714295     53.917048                    
V 26 -22333.023808  12071.252796 -11286.728074      0.053935                    
P 27  23127.566156  11845.106415   6213.965765    -88.430237                    
V 27   5291.774475   6318.848054 -30569.942936     -0.072430                    
P 28  -2643.708886 -15074.670617  22278.341406    606.483424                    
V 28  25581.013292  -8312.984783  -2471.131342     -0.055646                    
P 29  -5811.874393  14074.380777 -21799.640262   -306.501717                    
V 29 -21148.743716 -17604.176339  -5776.665783     -0.069335                    
P 30  -1335.067484 -25573.718640   6637.848274   -394.124098                    
V 30   4714.462550  -7870.051661 -29812.485250     -0.056136                    
P 31   8408.439468  19596.757204 -15613.306437   -103.845115                    
V 31  -5042.970901  19372.425167  22168.290895     -0.022887                    
P 32  13037.728104  19940.128506  12015.898565     20.558407                    
V 32 -13515.442693  -7000.906088  26335.462369      0.008752                    
EOF
